STARLINK-36325          
1 67861U 26034M   26074.60279894  .00312776  00000+0  15252-2 0  9999
2 67861  53.1582 181.6257 0001908  47.3810 312.7374 15.80963337  4876
STARLINK-36332          
1 67862U 26034N   26074.60205150  .00254142  00000+0  12502-2 0  9991
2 67862  53.1581 181.6204 0002161  26.3610 333.7522 15.80931809  4872
STARLINK-36835          
1 67863U 26034P   26074.60130207  .00281463  00000+0  13800-2 0  9990
2 67863  53.1582 181.6143 0002108  50.8064 309.3146 15.80929428  4877
STARLINK-36831          
1 67864U 26034Q   26074.60055152  .00316238  00000+0  15468-2 0  9997
2 67864  53.1582 181.6101 0001690  46.9713 313.1451 15.80887585  4873
STARLINK-36738          
1 67865U 26034R   26074.59979760  .00259335  00000+0  12782-2 0  9996
2 67865  53.1581 181.6046 0001839 111.0908 249.0312 15.80875464  4872
STARLINK-36780          
1 67866U 26034S   26074.59904904  .00200559  00000+0  99454-3 0  9991
2 67866  53.1584 181.5996 0001457 146.9817 213.1297 15.80910082  4871
STARLINK-36761          
1 67867U 26034T   26074.59829687  .00264683  00000+0  12993-2 0  9996
2 67867  53.1584 181.5932 0001357  55.6422 304.4729 15.80949247  4878
STARLINK-36762          
1 67868U 26034U   26074.59754686  .00378079  00000+0  18316-2 0  9993
2 67868  53.1585 181.5889 0001233  59.9011 300.2134 15.80930072  4875
STARLINK-36779          
1 67869U 26034V   26074.59679839  .00182699  00000+0  90831-3 0  9994
2 67869  53.1586 181.5844 0001054 102.6691 257.4450 15.80906856  4876
STARLINK-36770          
1 67870U 26034W   26074.59529858  .00198180  00000+0  98292-3 0  9992
2 67870  53.1584 181.5741 0001534  49.0832 311.0324 15.80913155  4873
STARLINK-36769          
1 67871U 26034X   26074.59604622  .00249052  00000+0  12256-2 0  9996
2 67871  53.1580 181.5786 0001191  55.3311 304.7824 15.80939242  4879
STARLINK-36786          
1 67872U 26034Y   26074.53132963  .00311103  00000+0  15218-2 0  9993
2 67872  53.1584 181.8859 0000953 114.8549 245.2573 15.80898732  4864
STARLINK-36783          
1 67873U 26034Z   26074.53057661  .00179651  00000+0  89401-3 0  9991
2 67873  53.1599 181.8786 0001280 132.4188 227.6943 15.80895192  4861
STARLINK-36730          
1 67874U 26034AA  26074.59304869  .00317271  00000+0  15461-2 0  9999
2 67874  53.1584 181.5593 0001966  27.4807 332.6320 15.80965483  4879
STARLINK-36727          
1 67875U 26034AB  26074.52908020  .00206404  00000+0  10230-2 0  9996
2 67875  53.1586 181.8701 0000847  55.7602 304.3501 15.80904677  4864
STARLINK-36743          
1 67876U 26034AC  26074.59154899  .00225791  00000+0  11155-2 0  9998
2 67876  53.1590 181.5490 0000785  88.7168 271.3945 15.80918165  4879
